full_name,epoch_mjd,a,e,i,om,w,ma,per_y
 37572 (1989 UC5),57400,5.242359097,0.14353461,9.372632162,211.8886008,160.70581,67.47183815,12.00323619
 37685 (1995 OU2),57400,5.249105463,0.125061144,10.1101448,179.3330374,170.1412933,225.7883846,12.026414
 37710 (1996 RD12),57400,5.23466625,0.079224409,9.55594558,3.701132326,78.58359149,134.7726176,11.97682484
 37714 (1996 RK29),57400,5.14170739,0.185976697,4.528404345,96.42179676,243.827568,257.4298066,11.65921307
 37715 (1996 RN31),57400,5.146984724,0.026153137,8.897826577,173.8575607,338.975706,83.88657703,11.6771678
 37716 (1996 RP32),57400,5.177058369,0.066072482,4.347823597,52.31738881,303.3430779,223.8316818,11.77966106
 37732 (1996 TY68),57400,5.232221373,0.026982954,15.47647468,0.873115958,241.8737183,343.7795244,11.96843507
 37789 (1997 UL16),57400,5.264045368,0.009472267,0.449995923,264.2463951,209.4111438,108.3635665,12.07779455
 37790 (1997 UX26),57400,5.259699194,0.084418689,9.526783564,160.128597,253.9226076,166.5126485,12.06283988
 38050 (1998 VR38),57400,5.207658564,0.074887827,28.54302275,233.5627477,192.7823746,144.9666617,11.88425483
 38051 (1998 XJ5),57400,5.171909025,0.18527603,8.754500455,60.09587326,25.25681389,139.740449,11.76209053
 38052 (1998 XA7),57400,5.242629083,0.033745853,1.809740066,147.7166725,263.2332872,158.3818497,12.00416347
 38257 (1999 RC13),57400,5.212606123,0.118471249,14.82376974,160.4567299,123.0414941,183.2814437,11.90119489
 38574 (1999 WS4),57400,5.142804999,0.104951064,7.19224439,300.8927027,170.8047152,106.3678897,11.66294663
 38585 (1999 XD67),57400,5.168047278,0.105285854,5.757402463,242.122295,201.5742378,120.8453224,11.74891926
 38592 (1999 XH162),57400,5.268126233,0.084859918,15.79102959,24.66954306,59.52947197,126.0460194,12.09184194
 38594 (1999 XF193),57400,5.256775199,0.046362993,8.865604775,324.840587,111.9073139,130.3894669,12.05278224
 38596 (1999 XP199),57400,5.136410242,0.062302095,6.484926547,22.06675238,66.38046057,134.8183413,11.64120018
 38597 (1999 XU200),57400,5.277835355,0.119880136,16.85684413,72.56234386,36.09420263,107.8491988,12.12528511
 38598 (1999 XQ208),57400,5.143351131,0.050412712,11.61274604,44.27686899,65.90917619,122.4154249,11.66480447
 38599 (1999 XC210),57400,5.225042239,0.087091999,14.5375884,34.52847722,38.74069842,139.501556,11.94381068
 38600 (1999 XR213),57400,5.184842351,0.033852477,9.937385984,110.9955229,4.805737738,94.12740234,11.80623806
 38606 (1999 YC13),57400,5.138302847,0.061745164,18.26294259,80.30694135,19.89142593,136.0588198,11.64763489
 38607 (2000 AN6),57400,5.229739403,0.031232276,13.88789029,112.5611733,9.453345136,120.3370005,11.95992001
 38609 (2000 AB26),57400,5.286543947,0.109287817,11.6343331,100.3704074,348.925147,127.7629043,12.15530813
 38610 (2000 AU45),57400,5.229249725,0.014686578,14.07288662,270.6678099,305.8744772,1.417506108,11.95824028
 38611 (2000 AS74),57400,5.194059741,0.127100766,8.353846452,107.4652629,355.8363483,115.4651487,11.83773498
 38614 (2000 AA113),57400,5.257863653,0.025927183,17.1834441,134.4525664,350.0289831,108.1331752,12.05652586
 38615 (2000 AV121),57400,5.176533331,0.160973337,3.96618926,270.4153421,141.1799485,171.4617713,11.77786913
 38617 (2000 AY161),57400,5.199025763,0.041055988,12.81642995,86.60415826,279.3073959,220.8540579,11.85471606
 38619 (2000 AW183),57400,5.184336358,0.155399065,14.07438684,149.5147799,262.0585554,168.0017312,11.80450983
 38621 (2000 AG201),57400,5.171845543,0.075412685,14.00461019,147.5677163,252.582438,181.1848768,11.76187397
 39229 (2000 YJ30),57400,5.197149165,0.161049757,7.167899205,30.43929336,97.02212322,96.2258768,11.84829817
 39264 (2000 YQ139),57400,5.239673045,0.070211831,18.19300642,207.2167093,207.1252775,178.1527486,11.99401214
 39270 (2001 AH11),57400,5.184700969,0.074069513,5.414124613,238.5313787,231.7875217,106.7860951,11.80575516
 39275 (2001 AV37),57400,5.228416567,0.084551557,18.00997286,84.33451414,24.02651115,118.3814699,11.9553825
 39278 (2001 BK9),57400,5.271522156,0.079015062,6.00608148,27.73390035,38.26435153,148.8971119,12.10353573
 39280 (2001 BE24),57400,5.197918046,0.063010935,12.02987755,310.4482706,123.685361,136.0335594,11.85092758
 39284 (2001 BB62),57400,5.182215181,0.049746157,9.006137673,228.8474241,260.23596,107.4987667,11.79726583
 39285 (2001 BP75),57400,5.159146261,0.080514495,6.493422852,330.6737276,129.0159421,138.8052113,11.71857928
 39286 (2001 CX6),57400,5.282722931,0.069046047,4.645871084,79.25520268,359.7105596,142.8073577,12.14213207
 39287 (2001 CD14),57400,5.08844869,0.040510522,5.227566202,47.91988653,9.000537032,183.8578405,11.47853074
 39288 (2001 CD21),57400,5.277835491,0.051460612,1.948359746,325.9811531,165.2203158,86.2071412,12.12528558
 39289 (2001 CT28),57400,5.24317004,0.045774742,10.01823176,27.975854,99.31552,104.220085,12.00602148
 39292 (2001 DS4),57400,5.266553486,0.140506845,9.390579666,82.76123442,50.41075198,94.46842915,12.08642749
 39293 (2001 DQ10),57400,5.218868885,0.036221333,14.41097189,152.9760423,233.4720496,184.8551504,11.92264962
 39362 (2002 BU1),57400,5.103721023,0.061288968,9.735076366,180.4982907,284.2973067,122.1443064,11.53024653
 39369 (2002 CE13),57400,5.159493684,0.059158044,18.15876746,354.6304453,260.8273586,327.2145074,11.71976302
 39463 Phyleus (1973 SZ),57400,5.167506144,0.086409235,5.764590121,143.5487614,278.7246651,185.7182929,11.74707401
 39474 (1978 VC7),57400,5.272743534,0.087449463,13.04949884,71.61743967,219.8964974,166.781306,12.10774244
 39691 (1996 RR31),57400,5.227844642,0.088924953,2.353834964,156.6255037,278.8452803,158.2170591,11.95342089
 39692 (1996 RB32),57400,5.184049605,0.054639476,6.876284905,136.6789104,167.8307214,264.4492233,11.80353046
 39693 (1996 ST1),57400,5.193370612,0.008963289,6.527802218,203.9135182,130.2356145,263.2750629,11.83537918
 39793 (1997 SZ23),57400,5.185254413,0.065939731,14.99477665,22.15600368,96.84250263,118.9570377,11.80764553
 39794 (1997 SU24),57400,5.156615819,0.029140198,15.50752071,28.8994251,34.112398,176.5391972,11.7099588
 39795 (1997 SF28),57400,5.153669844,0.095922311,6.736500863,344.9005742,80.55503467,170.863385,11.69992538
 39797 (1997 TK18),57400,5.17013082,0.082200197,14.98443839,27.25166369,126.032183,63.08581107,11.75602499
 39798 (1997 TW28),57400,5.188283474,0.102897851,8.053109257,39.4509932,350.4826192,189.8603394,11.81799352
 39803 (1997 UY15),57400,5.310518449,0.072526475,0.497973784,165.1297257,243.6678498,167.2890473,12.23808838
 40237 (1998 VM6),57400,5.221879224,0.218144548,6.283730179,309.2567191,129.1068078,139.3146862,11.93296692
 40262 (1999 CF156),57400,5.242666315,0.151999209,10.78045651,74.74286933,35.63754074,119.9026541,12.00429134
 41268 (1999 XO64),57400,5.191220786,0.129451338,16.29270481,75.31792352,37.52012717,92.33602906,11.82803095
 41340 (1999 YO14),57400,5.160973181,0.057577498,33.16916869,183.290337,286.9620903,107.6966996,11.72480438
 41342 (1999 YC23),57400,5.332619608,0.085896199,2.879517195,239.2331352,199.7678242,139.6662294,12.31456598
 41350 (2000 AJ25),57400,5.231104099,0.081438968,9.692489777,294.2996391,104.4406107,180.6600653,11.96460171
 41353 (2000 AB33),57400,5.208529259,0.076591808,9.97945339,92.72056205,313.3305666,194.7032404,11.88723544
 41355 (2000 AF36),57400,5.162411141,0.078970594,8.032357048,95.86694964,327.1205494,169.0070319,11.7297049
 41359 (2000 AG55),57400,5.1323213,0.025538664,6.771048931,102.8099968,343.6232597,172.5611637,11.62730213